{
  "type": "FeatureCollection",
  "features": [
    {
      "type": "Feature",
      "properties": {
        "norad_id": 41772,
        "name": "SKYSAT-C5",
        "group": "resource",
        "lat": -9.693469134591517,
        "lon": -153.12474942741616,
        "alt_km": 463.3681365679631,
        "timestamp": "2025-12-10T05:46:13.454740+00:00",
        "meta_object_name": "SKYSAT-C5",
        "meta_object_id": "2016-058C",
        "meta_epoch": "2025-12-09T02:21:16.658208",
        "meta_mean_motion": 15.35258883,
        "meta_eccentricity": 0.00022673,
        "meta_inclination": 97.0758,
        "meta_ra_of_asc_node": 26.9942,
        "meta_arg_of_pericenter": 143.2849,
        "meta_mean_anomaly": 216.8551,
        "meta_ephemeris_type": 0,
        "meta_classification_type": "U",
        "meta_norad_cat_id": 41772,
        "meta_element_set_no": 999,
        "meta_rev_at_epoch": 51460,
        "meta_bstar": 0.00035120172,
        "meta_mean_motion_dot": 0.00011953,
        "meta_mean_motion_ddot": 0,
        "tle_line1": "1 41772U 16058C   25343.09810947  .00011953  00000+0  35120-3 0  9998",
        "tle_line2": "2 41772  97.0758  26.9942 0002267 143.2849 216.8551 15.35258883514601"
      },
      "geometry": {
        "type": "Point",
        "coordinates": [
          -153.12474942741616,
          -9.693469134591517
        ]
      }
    },
    {
      "type": "Feature",
      "properties": {
        "norad_id": 41773,
        "name": "SKYSAT-C2",
        "group": "resource",
        "lat": -1.8595649626193855,
        "lon": -171.3569031186401,
        "alt_km": 460.2356169922268,
        "timestamp": "2025-12-10T05:46:13.454750+00:00",
        "meta_object_name": "SKYSAT-C2",
        "meta_object_id": "2016-058D",
        "meta_epoch": "2025-12-09T19:36:30.571200",
        "meta_mean_motion": 15.37164214,
        "meta_eccentricity": 0.0004529,
        "meta_inclination": 97.0363,
        "meta_ra_of_asc_node": 8.4674,
        "meta_arg_of_pericenter": 42.0421,
        "meta_mean_anomaly": 318.1171,
        "meta_ephemeris_type": 0,
        "meta_classification_type": "U",
        "meta_norad_cat_id": 41773,
        "meta_element_set_no": 999,
        "meta_rev_at_epoch": 51591,
        "meta_bstar": 0.00046385,
        "meta_mean_motion_dot": 0.00016823,
        "meta_mean_motion_ddot": 0,
        "tle_line1": "1 41773U 16058D   25343.81702050  .00016823  00000+0  46385-3 0  9990",
        "tle_line2": "2 41773  97.0363   8.4674 0004529  42.0421 318.1171 15.37164214515911"
      },
      "geometry": {
        "type": "Point",
        "coordinates": [
          -171.3569031186401,
          -1.8595649626193855
        ]
      }
    },
    {
      "type": "Feature",
      "properties": {
        "norad_id": 41774,
        "name": "SKYSAT-C3",
        "group": "resource",
        "lat": -52.96638724266694,
        "lon": 27.379990747554633,
        "alt_km": 441.6361688729985,
        "timestamp": "2025-12-10T05:46:13.454761+00:00",
        "meta_object_name": "SKYSAT-C3",
        "meta_object_id": "2016-058E",
        "meta_epoch": "2025-12-09T08:13:44.896800",
        "meta_mean_motion": 15.44211075,
        "meta_eccentricity": 0.00016082,
        "meta_inclination": 96.93,
        "meta_ra_of_asc_node": 17.247,
        "meta_arg_of_pericenter": 106.2569,
        "meta_mean_anomaly": 253.8858,
        "meta_ephemeris_type": 0,
        "meta_classification_type": "U",
        "meta_norad_cat_id": 41774,
        "meta_element_set_no": 999,
        "meta_rev_at_epoch": 51673,
        "meta_bstar": 0.00051602261,
        "meta_mean_motion_dot": 0.00023646,
        "meta_mean_motion_ddot": 0,
        "tle_line1": "1 41774U 16058E   25343.34288075  .00023646  00000+0  51602-3 0  9994",
        "tle_line2": "2 41774  96.9300  17.2470 0001608 106.2569 253.8858 15.44211075516738"
      },
      "geometry": {
        "type": "Point",
        "coordinates": [
          27.379990747554633,
          -52.96638724266694
        ]
      }
    },
    {
      "type": "Feature",
      "properties": {
        "norad_id": 41785,
        "name": "ALSAT 1B",
        "group": "resource",
        "lat": 81.26805542411628,
        "lon": -120.9551521217138,
        "alt_km": 639.8341724152151,
        "timestamp": "2025-12-10T05:46:13.454771+00:00",
        "meta_object_name": "ALSAT 1B",
        "meta_object_id": "2016-059C",
        "meta_epoch": "2025-12-09T21:11:19.758048",
        "meta_mean_motion": 14.72071188,
        "meta_eccentricity": 0.0010639,
        "meta_inclination": 97.7811,
        "meta_ra_of_asc_node": 355.7957,
        "meta_arg_of_pericenter": 111.1549,
        "meta_mean_anomaly": 249.0797,
        "meta_ephemeris_type": 0,
        "meta_classification_type": "U",
        "meta_norad_cat_id": 41785,
        "meta_element_set_no": 999,
        "meta_rev_at_epoch": 49272,
        "meta_bstar": 0.0001459,
        "meta_mean_motion_dot": 8.71e-06,
        "meta_mean_motion_ddot": 0,
        "tle_line1": "1 41785U 16059C   25343.88286757  .00000871  00000+0  14590-3 0  9991",
        "tle_line2": "2 41785  97.7811 355.7957 0010639 111.1549 249.0797 14.72071188492723"
      },
      "geometry": {
        "type": "Point",
        "coordinates": [
          -120.9551521217138,
          81.26805542411628
        ]
      }
    },
    {
      "type": "Feature",
      "properties": {
        "norad_id": 41787,
        "name": "PATHFINDER 1",
        "group": "resource",
        "lat": -35.297654303906405,
        "lon": 161.55088220786925,
        "alt_km": 688.6288312918823,
        "timestamp": "2025-12-10T05:46:13.454782+00:00",
        "meta_object_name": "PATHFINDER 1",
        "meta_object_id": "2016-059E",
        "meta_epoch": "2025-12-09T12:25:38.745120",
        "meta_mean_motion": 14.67312716,
        "meta_eccentricity": 0.0030058,
        "meta_inclination": 97.8139,
        "meta_ra_of_asc_node": 346.4409,
        "meta_arg_of_pericenter": 90.9607,
        "meta_mean_anomaly": 269.5043,
        "meta_ephemeris_type": 0,
        "meta_classification_type": "U",
        "meta_norad_cat_id": 41787,
        "meta_element_set_no": 999,
        "meta_rev_at_epoch": 49189,
        "meta_bstar": 0.00025681,
        "meta_mean_motion_dot": 1.412e-05,
        "meta_mean_motion_ddot": 0,
        "tle_line1": "1 41787U 16059E   25343.51780955  .00001412  00000+0  25681-3 0  9997",
        "tle_line2": "2 41787  97.8139 346.4409 0030058  90.9607 269.5043 14.67312716491891"
      },
      "geometry": {
        "type": "Point",
        "coordinates": [
          161.55088220786925,
          -35.297654303906405
        ]
      }
    },
    {
      "type": "Feature",
      "properties": {
        "norad_id": 41790,
        "name": "SCATSAT 1",
        "group": "resource",
        "lat": 74.56060221042202,
        "lon": -107.87792701085768,
        "alt_km": 592.4357436121927,
        "timestamp": "2025-12-10T05:46:13.454793+00:00",
        "meta_object_name": "SCATSAT 1",
        "meta_object_id": "2016-059H",
        "meta_epoch": "2025-12-09T14:41:31.589088",
        "meta_mean_motion": 14.7892095,
        "meta_eccentricity": 0.0056121,
        "meta_inclination": 98.1466,
        "meta_ra_of_asc_node": 40.2434,
        "meta_arg_of_pericenter": 137.8727,
        "meta_mean_anomaly": 222.6818,
        "meta_ephemeris_type": 0,
        "meta_classification_type": "U",
        "meta_norad_cat_id": 41790,
        "meta_element_set_no": 999,
        "meta_rev_at_epoch": 7356,
        "meta_bstar": 0.00038427,
        "meta_mean_motion_dot": 2.853e-05,
        "meta_mean_motion_ddot": 0,
        "tle_line1": "1 41790U 16059H   25343.61217117  .00002853  00000+0  38427-3 0  9999",
        "tle_line2": "2 41790  98.1466  40.2434 0056121 137.8727 222.6818 14.78920950 73569"
      },
      "geometry": {
        "type": "Point",
        "coordinates": [
          -107.87792701085768,
          74.56060221042202
        ]
      }
    },
    {
      "type": "Feature",
      "properties": {
        "norad_id": 41875,
        "name": "GOKTURK 1A",
        "group": "resource",
        "lat": -26.6274721416691,
        "lon": -119.24501141611302,
        "alt_km": 690.1721131719278,
        "timestamp": "2025-12-10T05:46:13.454803+00:00",
        "meta_object_name": "GOKTURK 1A",
        "meta_object_id": "2016-073A",
        "meta_epoch": "2025-12-09T20:02:34.929600",
        "meta_mean_motion": 14.62774426,
        "meta_eccentricity": 0.0001242,
        "meta_inclination": 98.1427,
        "meta_ra_of_asc_node": 236.2388,
        "meta_arg_of_pericenter": 79.3627,
        "meta_mean_anomaly": 280.7715,
        "meta_ephemeris_type": 0,
        "meta_classification_type": "U",
        "meta_norad_cat_id": 41875,
        "meta_element_set_no": 999,
        "meta_rev_at_epoch": 48114,
        "meta_bstar": 0.00017866,
        "meta_mean_motion_dot": 8.64e-06,
        "meta_mean_motion_ddot": 0,
        "tle_line1": "1 41875U 16073A   25343.83512650  .00000864  00000+0  17866-3 0  9997",
        "tle_line2": "2 41875  98.1427 236.2388 0001242  79.3627 280.7715 14.62774426481144"
      },
      "geometry": {
        "type": "Point",
        "coordinates": [
          -119.24501141611302,
          -26.6274721416691
        ]
      }
    }
  ]
}